satname,norad_id,inclination_deg,eccentricity,mean_motion_rev_per_day,perigee_km,apogee_km,l1,l2
STARLINK-1554,46055,53.1591,0.0001307,15.31688477,469.8791921916054,471.66949761716296,1 46055U 20055AE  26149.23605887 -.00002991  00000+0 -84675-4 0  9999,2 46055  53.1591  99.3934 0001307  87.6811 272.4340 15.31688477321418
STARLINK-1564,46058,53.1588,9.78e-05,15.30191997,474.5687048695381,475.909225208301,1 46058U 20055AH  26149.28139137  .00005723  00000+0  20524-3 0  9993,2 46058  53.1588 100.0266 0000978  83.3523 276.7589 15.30191997321407
STARLINK-1570,46059,53.1587,0.0001232,15.31675612,469.9689049467306,471.6564861517145,1 46059U 20055AJ  26149.06827404 -.00002856  00000+0 -80381-4 0  9995,2 46059  53.1587 100.0561 0001232  82.1001 278.0141 15.31675612321341
STARLINK-1572,46060,53.16,0.0001519,15.30190503,474.2023974094427,476.2844543828305,1 46060U 20055AK  26149.26239422 -.00000996  00000+0 -21493-4 0  9998,2 46060  53.1600  99.8603 0001519 104.3759 255.7411 15.30190503321371
STARLINK-1573,46061,53.16,0.0001377,15.31718941,469.7404510846063,471.62661625958026,1 46061U 20055AL  26149.25000584  .00003982  00000+0  13994-3 0  9995,2 46061  53.1600  99.1777 0001377  81.1560 278.9597 15.31718941321411
STARLINK-1577,46063,53.1592,0.0001086,15.3170702,469.97528328176213,471.46285481995983,1 46063U 20055AN  26149.27798424  .00004444  00000+0  15486-3 0  9998,2 46063  53.1592  99.0454 0001086 102.1262 257.9861 15.31707020321411
STARLINK-1583,46064,53.1584,0.0002874,15.30700195,471.75275974976375,475.6912082937797,1 46064U 20055AP  26149.48755740  .00172308  00000+0  56087-2 0  9992,2 46064  53.1584  98.5642 0002874 177.3586 182.7430 15.30700195321439
STARLINK-1536,46070,53.1611,0.0001964,15.31702285,469.38806566392486,472.0783018721095,1 46070U 20055AV  26148.57556574  .00004360  00000+0  15218-3 0  9996,2 46070  53.1611  90.2002 0001964  86.1626 273.9600 15.31702285321476
STARLINK-1542,46073,53.1602,0.0001179,15.31705894,469.91494504841194,471.52990610096185,1 46073U 20055AY  26148.99143755  .00002398  00000+0  89007-4 0  9995,2 46073  53.1602  91.2315 0001179 108.8207 251.2923 15.31705894321489
STARLINK-1549,46074,53.0495,0.0004297,15.28440856,477.52544887775093,483.4197379623356,1 46074U 20055AZ  26149.26003142  .00024459  00000+0  88122-3 0  9990,2 46074  53.0495  87.0688 0004297  79.8748 280.2735 15.28440856321557
STARLINK-1551,46075,53.1601,0.0001554,15.30193944,474.16813788180025,476.29816532491805,1 46075U 20055BA  26149.01107890 -.00001557  00000+0 -40455-4 0  9993,2 46075  53.1601  87.9788 0001554  80.0980 280.0196 15.30193944321536
STARLINK-1552,46076,53.1603,0.0001299,15.3169394,469.86838836159677,471.64773129814057,1 46076U 20055BB  26149.20503814  .00002305  00000+0  86023-4 0  9992,2 46076  53.1603  86.7874 0001299  97.6221 262.4928 15.31693940321551
STARLINK-1559,46077,53.0238,0.0002555,15.3718875,452.6813010573014,456.1727412721166,1 46077U 20055BC  26148.98046572  .00061033  00000+0  16488-2 0  9999,2 46077  53.0238  57.9000 0002555  76.6119 283.5168 15.37188750321908
STARLINK-1566,46079,53.161,0.0001083,15.31698157,470.00375514468396,471.4872230918263,1 46079U 20055BE  26149.01394206 -.00002252  00000+0 -60823-4 0  9990,2 46079  53.1610  87.5305 0001083  86.8717 273.2409 15.31698157321549
STARLINK-1568,46080,53.0591,0.0003798,15.53228071,404.7311922310537,409.88541648424325,1 46080U 20055BF  26149.61591578  .00053765  00000+0  84181-3 0  9994,2 46080  53.0591   4.8189 0003798  62.7919 297.3477 15.53228071322745
STARLINK-1578,46082,53.1583,0.0001589,15.31696769,469.6613386004692,471.83791477042996,1 46082U 20055BH  26149.01832159 -.00004104  00000+0 -12056-3 0  9990,2 46082  53.1583  88.0252 0001589 120.4170 239.6988 15.31696769321532
STARLINK-1579,46083,53.1616,0.0001244,15.31702189,469.8814704518654,471.5854694247855,1 46083U 20055BJ  26149.20037463  .00002871  00000+0  10423-3 0  9990,2 46083  53.1616  86.7141 0001244  99.0558 261.0585 15.31702189321560
STARLINK-1622,46128,53.015,0.000756,15.81124533,322.190112685229,332.3286720304741,1 46128U 20057M   26149.58337963  .00176673  00000+0  86880-3 0  9993,2 46128  53.0150 182.7279 0007560  24.8687  96.1854 15.81124533  5636
STARLINK-1623,46129,53.0432,0.0005361,15.72551478,347.99995806768857,355.21559041463024,1 46129U 20057N   26149.59984800  .00116753  00000+0  84719-3 0  9995,2 46129  53.0432 220.1815 0005361   2.5986 357.5059 15.72551478319579
STARLINK-1596,46141,53.0357,0.0006919,15.57694048,389.64678162137807,399.018525127718,1 46141U 20057AA  26149.53488489  .00090596  00000+0  11930-2 0  9995,2 46141  53.0357 201.9794 0006919 359.8237   0.2771 15.57694048319824
STARLINK-1597,46142,53.0431,0.0003348,15.72292638,350.09298142103944,354.5997130703554,1 46142U 20057AB  26149.58337963  .00060117  00000+0  44641-3 0  9993,2 46142  53.0431 259.9952 0003348  13.9860  32.1501 15.72292638  5979
STARLINK-1606,46144,53.0356,0.0008297,15.86103754,307.6668185438384,318.77045408673985,1 46144U 20057AD  26149.58337963  .00289895  00000+0  11098-2 0  9990,2 46144  53.0356 214.0326 0008297 344.7602  17.9867 15.86103754  5680
STARLINK-1608,46146,53.1595,0.0002451,15.34925521,459.4654194948289,462.8180339266628,1 46146U 20057AF  26149.54440957  .00030495  00000+0  89495-3 0  9993,2 46146  53.1595 292.7692 0002451 300.5033  59.5728 15.34925521318571
STARLINK-1667,46155,53.0116,0.0009075,15.85543676,308.7204795867656,320.86814992304517,1 46155U 20057AQ  26149.58337963  .00255107  00000+0  10072-2 0  9992,2 46155  53.0116 182.2698 0009075  25.3796 308.5560 15.85543676  6045
STARLINK-1545,46156,53.0401,0.0006512,15.79784511,326.68164966298446,335.4196956878768,1 46156U 20057AR  26149.58337963  .00240006  00000+0  12452-2 0  9999,2 46156  53.0401 218.1275 0006512 330.3835 181.3590 15.79784511  5989
STARLINK-1595,46159,53.0432,0.0003353,15.7032483,355.7093004022663,360.22653235919097,1 46159U 20057AU  26149.53116790  .00109457  00000+0  87361-3 0  9996,2 46159  53.0432 262.8654 0003353 359.1110   0.9900 15.70324830320221
STARLINK-1598,46160,53.0459,0.0001184,15.70221856,357.464822691526,359.06000207237776,1 46160U 20057AV  26149.50456186  .00102545  00000+0  82309-3 0  9999,2 46160  53.0459 249.1414 0001184 164.6810 195.4243 15.70221856320404
STARLINK-1626,46167,53.0426,0.0002425,15.70296013,356.41680163320325,359.68385248682716,1 46167U 20057BC  26149.49794550  .00101927  00000+0  81564-3 0  9999,2 46167  53.0426 258.6834 0002425 352.3902   7.7078 15.70296013319027
